{
"type": "FeatureCollection",
"name": "delhi_state_boundary",
"crs": { "type": "name", "properties": { "name": "urn:ogc:def:crs:OGC:1.3:CRS84" } },
"features": [
{ "type": "Feature", "properties": { "state": "NCT of Delhi", "source": "DataMeet Maps", "crs": "EPSG:4326" }, "geometry": { "type": "Polygon", "coordinates": [ [ [ 77.303756207513644, 28.561264438305184 ], [ 77.305141367388302, 28.555732227913847 ], [ 77.313009842587078, 28.544969186315203 ], [ 77.314389790602561, 28.54374539175398 ], [ 77.320634799748376, 28.538206659501633 ], [ 77.32483339884692, 28.536001581058279 ], [ 77.33144856523451, 28.530363873542257 ], [ 77.336496804410956, 28.523759166083913 ], [ 77.340443565032302, 28.518594852514614 ], [ 77.342922601231152, 28.516156785945718 ], [ 77.343897809637184, 28.515197720042821 ], [ 77.344150455312871, 28.514752834089922 ], [ 77.346755573668602, 28.510166443541074 ], [ 77.347651785785828, 28.503455393869181 ], [ 77.344370510941673, 28.505584654180733 ], [ 77.338895244768466, 28.50282321673253 ], [ 77.336573775968716, 28.49795786780577 ], [ 77.331591994507775, 28.493882989277235 ], [ 77.324749081154565, 28.489065516003929 ], [ 77.316728246018045, 28.485191441211544 ], [ 77.310804421892556, 28.484632836029512 ], [ 77.306121063976249, 28.485668662545912 ], [ 77.295641261514547, 28.490795216269316 ], [ 77.287900807447031, 28.492677906822067 ], [ 77.280960528553138, 28.491564112316944 ], [ 77.269910089235012, 28.482974392977869 ], [ 77.263785698344691, 28.480093577314641 ], [ 77.252444006212556, 28.47915064567805 ], [ 77.246520919484809, 28.474240019183075 ], [ 77.242182733918526, 28.470352163490482 ], [ 77.237383774799895, 28.464308874093746 ], [ 77.235496596804026, 28.45856822564237 ], [ 77.236179558921407, 28.454817613335457 ], [ 77.24285892495196, 28.454006429532829 ], [ 77.24961574516955, 28.448158184751371 ], [ 77.253026802615196, 28.442036338229865 ], [ 77.254030117204209, 28.436207899655177 ], [ 77.252911034753936, 28.428222896042964 ], [ 77.250341564990435, 28.423401864411939 ], [ 77.232432511876482, 28.413519899282143 ], [ 77.224975616242773, 28.410302025107384 ], [ 77.215563518100865, 28.407962744783415 ], [ 77.204870442266227, 28.407100991609308 ], [ 77.189132126428831, 28.406957202651455 ], [ 77.175378696570306, 28.403052135245247 ], [ 77.163977052301391, 28.415900047311332 ], [ 77.161502055307807, 28.422922563320661 ], [ 77.152054110777627, 28.430329863056606 ], [ 77.141032101620638, 28.433326205367408 ], [ 77.133707810221779, 28.433864579383528 ], [ 77.127934006533167, 28.437064448307424 ], [ 77.12215454261144, 28.444875475495117 ], [ 77.118394459069194, 28.451997790825555 ], [ 77.115701746375251, 28.46054327066356 ], [ 77.11240519680932, 28.465104146260181 ], [ 77.111200752815606, 28.471134423109145 ], [ 77.113020035882201, 28.477774583149763 ], [ 77.115052606056111, 28.482787775065173 ], [ 77.117377419773661, 28.488521191935334 ], [ 77.113214392196184, 28.492121043945509 ], [ 77.100022897685818, 28.500122093855918 ], [ 77.095684187425377, 28.505535157149794 ], [ 77.082186397840232, 28.514969729422507 ], [ 77.077172685187165, 28.515336739053954 ], [ 77.066641525538245, 28.508568635759669 ], [ 77.058448432421116, 28.509950156564734 ], [ 77.0513371066247, 28.513677486259233 ], [ 77.042836242522128, 28.523067890818023 ], [ 77.029312402728507, 28.528010242359837 ], [ 77.025339195398644, 28.528069326699114 ], [ 77.015781764218048, 28.537520967096555 ], [ 77.009887284486098, 28.536763689882264 ], [ 77.005622537744387, 28.531655257826593 ], [ 77.007872235413885, 28.526898412270089 ], [ 77.014661238107479, 28.523483608274429 ], [ 77.021050345551188, 28.518854424369597 ], [ 77.020588227790654, 28.512771093394687 ], [ 77.01519124948031, 28.509187790973435 ], [ 76.999907257531802, 28.51453985486166 ], [ 76.986170601371512, 28.518579969390444 ], [ 76.978096938999585, 28.522354668094167 ], [ 76.954215753859302, 28.508429573644957 ], [ 76.942798479952259, 28.51084937097648 ], [ 76.932230804218591, 28.514082993656029 ], [ 76.918024236831911, 28.509739375596542 ], [ 76.907002648543042, 28.51260929400555 ], [ 76.903266490341551, 28.510985967247592 ], [ 76.896337141224677, 28.506079493782593 ], [ 76.888890648998, 28.503906424160505 ], [ 76.883328624622052, 28.509253264411544 ], [ 76.888994886878749, 28.518852316265651 ], [ 76.885861068051071, 28.523260062746111 ], [ 76.868773455566853, 28.536804588992013 ], [ 76.866307587236037, 28.542702284659295 ], [ 76.847171424969275, 28.551895874373479 ], [ 76.842514357482244, 28.577422597419602 ], [ 76.84464047343846, 28.586319016621548 ], [ 76.859858706724907, 28.585022638082673 ], [ 76.86444686291388, 28.58724614495722 ], [ 76.87055846965707, 28.597408516419637 ], [ 76.887657597958636, 28.632525240430876 ], [ 76.903412707315468, 28.627624870838162 ], [ 76.907009633483199, 28.627671664479006 ], [ 76.91375069989202, 28.63280689778049 ], [ 76.920099860706088, 28.632690969937748 ], [ 76.933406516116477, 28.623501671039481 ], [ 76.935723614530517, 28.624101213998003 ], [ 76.943672492340838, 28.632492501025634 ], [ 76.927980556563085, 28.648132152727797 ], [ 76.927275918373255, 28.652127844819315 ], [ 76.932917291641644, 28.664080331174244 ], [ 76.939553222509062, 28.669276359015303 ], [ 76.952080881039365, 28.669941183426623 ], [ 76.952388791688918, 28.669957511543057 ], [ 76.957102956060339, 28.672006049929216 ], [ 76.955796044031217, 28.678325016988953 ], [ 76.958244788652692, 28.682834769896143 ], [ 76.959878599210739, 28.68898025956203 ], [ 76.963721269821136, 28.694805797480662 ], [ 76.964094744816464, 28.695371953722788 ], [ 76.964504431085942, 28.700214302077242 ], [ 76.960859084724504, 28.704612542848071 ], [ 76.951172437165198, 28.711890679258342 ], [ 76.960606046129868, 28.731320662833408 ], [ 76.959153132414286, 28.736356587893432 ], [ 76.960265420781141, 28.741514679343066 ], [ 76.957397347979494, 28.745996148120881 ], [ 76.948168922596693, 28.754502444229256 ], [ 76.956580615089052, 28.768908062820497 ], [ 76.953971616587808, 28.773408004550145 ], [ 76.952344579253349, 28.782641236273829 ], [ 76.953119250899192, 28.789998472271208 ], [ 76.947506104305532, 28.79838957173434 ], [ 76.947400753510138, 28.804046761530323 ], [ 76.952371350871488, 28.815574517806848 ], [ 76.958285563275552, 28.812550280528608 ], [ 76.965848626910628, 28.814908948862659 ], [ 76.968106629711215, 28.825219642126683 ], [ 76.970930401171771, 28.826557193127261 ], [ 76.980657303586867, 28.819976861142319 ], [ 76.983795212420802, 28.820710136769204 ], [ 76.98967913275564, 28.831574872108764 ], [ 76.993636789187974, 28.833955941949693 ], [ 76.999866669746837, 28.834022508788333 ], [ 77.016769895327045, 28.830110428072633 ], [ 77.028952824755805, 28.831891732354034 ], [ 77.034838535069696, 28.831102100175681 ], [ 77.041706092069475, 28.831609861967735 ], [ 77.047861585546642, 28.847599332438609 ], [ 77.059993184245343, 28.86800385153041 ], [ 77.075915444421028, 28.867804884159074 ], [ 77.080413279704146, 28.874797294780972 ], [ 77.086123621192897, 28.879321705537276 ], [ 77.093613697275401, 28.869397456949311 ], [ 77.109730642040859, 28.867217752149269 ], [ 77.117413556067021, 28.863224768252358 ], [ 77.119976010349049, 28.860891041976934 ], [ 77.138837555703887, 28.860133425229559 ], [ 77.145361991014838, 28.853229476866307 ], [ 77.145860112449242, 28.8474284358327 ], [ 77.144067179110039, 28.839449536608061 ], [ 77.149460113305878, 28.836399908015032 ], [ 77.152647427131328, 28.837195019299894 ], [ 77.160929549448014, 28.84317053769546 ], [ 77.169904454796168, 28.852147600481793 ], [ 77.17490730047335, 28.85535417182215 ], [ 77.193989188706922, 28.857001316197163 ], [ 77.197210331446115, 28.861519456499753 ], [ 77.203835823442759, 28.860039631383188 ], [ 77.209999579541417, 28.859629047943042 ], [ 77.215152788298482, 28.857591132498012 ], [ 77.218187362631951, 28.854901790994688 ], [ 77.221808950613266, 28.849604245343478 ], [ 77.220938997029549, 28.83996404332024 ], [ 77.227639165395615, 28.829950566257871 ], [ 77.223926656431658, 28.808163422382506 ], [ 77.204882393075664, 28.810023818129128 ], [ 77.204689722139676, 28.796959832985785 ], [ 77.207169612488002, 28.789949943276 ], [ 77.21052226373159, 28.786519780386762 ], [ 77.212916492183155, 28.784070027014202 ], [ 77.214344003908394, 28.7835189924518 ], [ 77.218679759375604, 28.781845232583745 ], [ 77.223300966723798, 28.781095494546847 ], [ 77.224264215068018, 28.781313811917038 ], [ 77.226420104519519, 28.781802345810856 ], [ 77.228516776480461, 28.782277426895156 ], [ 77.230465190405894, 28.782276394666184 ], [ 77.233818197575403, 28.782274469435254 ], [ 77.234930323685631, 28.782273792343755 ], [ 77.232320573338896, 28.778380986561967 ], [ 77.227327341267298, 28.776331649021603 ], [ 77.231138941409355, 28.772545339912906 ], [ 77.237007171101624, 28.768592574441026 ], [ 77.239263848263903, 28.767072413710821 ], [ 77.245383061099503, 28.758022986513339 ], [ 77.248205311207812, 28.75384868265035 ], [ 77.248696429134995, 28.753731424176507 ], [ 77.256087621707749, 28.751966179092694 ], [ 77.258683126524829, 28.752152873178126 ], [ 77.263414652245459, 28.747400024651391 ], [ 77.26207910610313, 28.740112503092273 ], [ 77.266372801660481, 28.734540102369809 ], [ 77.270128186338781, 28.732723939288697 ], [ 77.276571003417914, 28.7338795378577 ], [ 77.28133040053568, 28.732781866462926 ], [ 77.287064576929509, 28.728985444613372 ], [ 77.29089325926482, 28.724619910455871 ], [ 77.291046915927723, 28.724368227144385 ], [ 77.294624473521182, 28.71850977850799 ], [ 77.293853082012305, 28.713557060198188 ], [ 77.295090383072676, 28.707033041050199 ], [ 77.303124311924961, 28.704343484199331 ], [ 77.305810723373568, 28.70760858582894 ], [ 77.311667078442724, 28.711293841431811 ], [ 77.316430733656674, 28.712231616501384 ], [ 77.327377006989039, 28.711763774281142 ], [ 77.333703853412956, 28.71041555057635 ], [ 77.331868384760298, 28.706371691769188 ], [ 77.330033309497821, 28.698195329559258 ], [ 77.331117597514307, 28.694218477306148 ], [ 77.337751692075386, 28.686380481905339 ], [ 77.33729417289436, 28.679694630838551 ], [ 77.335783625180056, 28.677391375868243 ], [ 77.335551498802403, 28.677037384140963 ], [ 77.328074883932928, 28.673885185094285 ], [ 77.328073619370286, 28.673858576906479 ], [ 77.328003894938263, 28.672391672047681 ], [ 77.32772533394477, 28.666531902780093 ], [ 77.327707853242117, 28.666164048955366 ], [ 77.325557835788004, 28.657802965445374 ], [ 77.325543975390659, 28.656384468990261 ], [ 77.325537631514138, 28.655733096057418 ], [ 77.325442054364586, 28.645907030477645 ], [ 77.323185016043155, 28.641208839049714 ], [ 77.321304686717596, 28.639186522546499 ], [ 77.323670421237466, 28.63774460047442 ], [ 77.323997068761003, 28.637426911332668 ], [ 77.326034535531704, 28.635444915488762 ], [ 77.331054749727144, 28.630560992626954 ], [ 77.336325190757634, 28.627993545614935 ], [ 77.34055944724112, 28.625930617202268 ], [ 77.344314172931078, 28.62150692359716 ], [ 77.347167900871383, 28.616412145357774 ], [ 77.347623117275205, 28.612011393650366 ], [ 77.346252794569111, 28.603392151011704 ], [ 77.343200949174658, 28.601226628263596 ], [ 77.337893796731763, 28.59939961184384 ], [ 77.326971893498694, 28.594482990517751 ], [ 77.323371952802233, 28.59397295082713 ], [ 77.319958061024224, 28.593489177566717 ], [ 77.317164253905048, 28.591442137128972 ], [ 77.315564131061166, 28.58955191184122 ], [ 77.315159560214184, 28.589074042138343 ], [ 77.304910009125976, 28.576964198625987 ], [ 77.304823876104024, 28.576782106473466 ], [ 77.303630374790743, 28.574258900229875 ], [ 77.303756207513644, 28.561264438305184 ] ] ] } }
]
}
